NORAD_CAT_ID,OBJECT_NAME,OBJECT_TYPE,EPOCH,MEAN_MOTION,ECCENTRICITY,INCLINATION,RA_OF_ASC_NODE,ARG_OF_PERICENTER,MEAN_ANOMALY,BSTAR,MEAN_MOTION_DOT,MEAN_MOTION_DDOT,TLE_LINE0,TLE_LINE1,TLE_LINE2,SEMIMAJOR_AXIS,PERIOD,APOGEE,PERIGEE,DECAYED
52271.0,STARLINK-3788,PAYLOAD,2024-05-09 23:54:41,15.0886415,0.0001049,53.2169,231.0018,52.5045,307.6042,0.00039819,6.059e-05,0.0,0 STARLINK-3788,1 52271U 22041L   24130.99631166  .00006059  00000-0  39819-3 0  9990,2 52271  53.2169 231.0018 0001049  52.5045 307.6042 15.08864150114630,6917.807,95.436,540.397,538.946,0.0
52271.0,STARLINK-3788,PAYLOAD,2024-05-10 12:37:48,15.08828843,0.0001094,53.2156,228.623,65.7499,294.3607,-0.00018962,-3.303e-05,0.0,0 STARLINK-3788,1 52271U 22041L   24131.52625049 -.00003303  00000-0 -18962-3 0  9990,2 52271  53.2156 228.6230 0001094  65.7499 294.3607 15.08828843114710,6917.914,95.438,540.536,539.023,0.0
52271.0,STARLINK-3788,PAYLOAD,2024-05-10 15:48:33,15.0884048,0.0001165,53.2177,228.029,73.1994,286.9126,-2.4651e-05,-6.8e-06,0.0,0 STARLINK-3788,1 52271U 22041L   24131.65872622 -.00000680  00000-0 -24651-4 0  9993,2 52271  53.2177 228.0290 0001165  73.1994 286.9126 15.08840480114731,6917.879,95.438,540.55,538.938,0.0
52271.0,STARLINK-3788,PAYLOAD,2024-05-11 12:28:31,15.08941259,0.0001437,53.2174,224.1626,70.0892,290.0255,0.0022913,0.00036468,0.0,0 STARLINK-3788,1 52271U 22041L   24132.51980791  .00036468  00000-0  22913-2 0  9994,2 52271  53.2174 224.1626 0001437  70.0892 290.0255 15.08941259114862,6917.571,95.431,540.43,538.442,0.0
52271.0,STARLINK-3788,PAYLOAD,2024-05-11 15:39:19,15.08840851,0.0001913,53.2169,223.5675,72.1802,287.9399,-0.00028934,-4.89e-05,0.0,0 STARLINK-3788,1 52271U 22041L   24132.65230859 -.00004890  00000-0 -28934-3 0  9998,2 52271  53.2169 223.5675 0001913  72.1802 287.9399 15.08840851114888,6917.878,95.438,541.066,538.419,0.0
52271.0,STARLINK-3788,PAYLOAD,2024-05-11 23:36:17,15.08770502,0.0002325,53.2179,222.0813,65.0182,295.1051,-0.0018257,-0.00029173,0.0,0 STARLINK-3788,1 52271U 22041L   24132.98353911 -.00029173  00000-0 -18257-2 0  9996,2 52271  53.2179 222.0813 0002325  65.0182 295.1051 15.08770502114934,6918.093,95.442,541.566,538.349,0.0
52271.0,STARLINK-3788,PAYLOAD,2024-05-12 12:19:26,15.0871308,0.00014,53.217,219.7027,72.3537,287.7608,-0.001696,-0.00027085,0.0,0 STARLINK-3788,1 52271U 22041L   24133.51350433 -.00027085  00000-0 -16960-2 0  9991,2 52271  53.2170 219.7027 0001400  72.3537 287.7608 15.08713080115016,6918.268,95.446,541.102,539.165,0.0
52271.0,STARLINK-3788,PAYLOAD,2024-05-13 12:10:14,15.08856583,0.0001572,53.2165,215.2435,74.56,285.5566,0.0021479,0.00034077,0.0,0 STARLINK-3788,1 52271U 22041L   24134.50711374  .00034077  00000-0  21479-2 0  9994,2 52271  53.2165 215.2435 0001572  74.5600 285.5566 15.08856583115160,6917.83,95.437,540.782,538.607,0.0
52271.0,STARLINK-3788,PAYLOAD,2024-05-14 12:00:59,15.08882229,0.00016,53.2166,210.7832,74.5776,285.5393,0.00032898,4.958e-05,0.0,0 STARLINK-3788,1 52271U 22041L   24135.50068378  .00004958  00000-0  32898-3 0  9997,2 52271  53.2166 210.7832 0001600  74.5776 285.5393 15.08882229115319,6917.751,95.435,540.723,538.509,0.0
52271.0,STARLINK-3788,PAYLOAD,2024-05-14 21:33:16,15.08894471,0.0001646,53.2169,208.9986,75.7827,284.3348,0.00054128,8.35e-05,0.0,0 STARLINK-3788,1 52271U 22041L   24135.89810923  .00008350  00000-0  54128-3 0  9990,2 52271  53.2169 208.9986 0001646  75.7827 284.3348 15.08894471114151,6917.714,95.434,540.718,538.44,0.0
52271.0,STARLINK-3788,PAYLOAD,2024-05-15 11:51:44,15.08869834,0.000168,53.2173,206.3238,84.1447,275.9736,-7.0577e-05,-1.412e-05,0.0,0 STARLINK-3788,1 52271U 22041L   24136.49426324 -.00001412  00000-0 -70577-4 0  9996,2 52271  53.2173 206.3238 0001680  84.1447 275.9736 15.08869834115465,6917.789,95.436,540.816,538.492,0.0
52271.0,STARLINK-3788,PAYLOAD,2024-05-15 13:27:07,15.08872563,0.0001675,53.2176,206.0268,82.0845,278.0338,1.0616e-05,-1.19e-06,0.0,0 STARLINK-3788,1 52271U 22041L   24136.56050122 -.00000119  00000-0  10616-4 0  9993,2 52271  53.2176 206.0268 0001675  82.0845 278.0338 15.08872563114252,6917.781,95.435,540.805,538.487,0.0
52271.0,STARLINK-3788,PAYLOAD,2024-05-15 21:24:02,15.08879222,0.0001621,53.2168,204.5391,83.1118,277.0059,0.00021953,3.211e-05,0.0,0 STARLINK-3788,1 52271U 22041L   24136.89169229  .00003211  00000-0  21953-3 0  9998,2 52271  53.2168 204.5391 0001621  83.1118 277.0059 15.08879222114303,6917.761,95.435,540.747,538.504,0.0
52271.0,STARLINK-3788,PAYLOAD,2024-05-16 11:42:30,15.08866758,0.0001721,53.2172,201.8597,79.4859,280.6327,0.00039549,6.016e-05,0.0,0 STARLINK-3788,1 52271U 22041L   24137.48785022  .00006016  00000-0  39549-3 0  9995,2 52271  53.2172 201.8597 0001721  79.4859 280.6327 15.08866758115610,6917.799,95.436,540.854,538.473,0.0
52271.0,STARLINK-3788,PAYLOAD,2024-05-16 13:17:53,15.08872414,0.0001756,53.2174,201.5632,87.252,272.8673,0.0010932,0.00017169,0.0,0 STARLINK-3788,1 52271U 22041L   24137.55408968  .00017169  00000-0  10932-2 0  9999,2 52271  53.2174 201.5632 0001756  87.2520 272.8673 15.08872414114408,6917.781,95.436,540.861,538.432,0.0
52271.0,STARLINK-3788,PAYLOAD,2024-05-16 21:14:48,15.08890406,0.0001805,53.2169,200.0753,67.5386,292.5798,0.0015524,0.00024539,0.0,0 STARLINK-3788,1 52271U 22041L   24137.88528173  .00024539  00000-0  15524-2 0  9997,2 52271  53.2169 200.0753 0001805  67.5386 292.5798 15.08890406114459,6917.726,95.434,540.84,538.343,0.0
52271.0,STARLINK-3788,PAYLOAD,2024-05-17 13:08:40,15.08841615,0.0001566,53.2166,197.1029,79.1613,280.9555,0.00031875,4.789e-05,0.0,0 STARLINK-3788,1 52271U 22041L   24138.54768594  .00004789  00000-0  31875-3 0  9997,2 52271  53.2166 197.1029 0001566  79.1613 280.9555 15.08841615115770,6917.875,95.437,540.824,538.657,0.0
52271.0,STARLINK-3788,PAYLOAD,2024-05-17 21:05:35,15.088543,0.0001525,53.2163,195.6174,78.4172,281.6991,0.00096613,0.00015127,0.0,0 STARLINK-3788,1 52271U 22041L   24138.87888413  .00015127  00000-0  96613-3 0  9995,2 52271  53.2163 195.6174 0001525  78.4172 281.6991 15.08854300114606,6917.837,95.437,540.757,538.647,0.0
52271.0,STARLINK-3788,PAYLOAD,2024-05-18 11:24:04,15.08851424,0.0001395,53.2166,192.9388,87.0357,273.0795,0.0019331,0.00030621,0.0,0 STARLINK-3788,1 52271U 22041L   24139.47504749  .00030621  00000-0  19331-2 0  9996,2 52271  53.2166 192.9388 0001395  87.0357 273.0795 15.08851424115918,6917.845,95.437,540.676,538.745,0.0
52271.0,STARLINK-3788,PAYLOAD,2024-05-18 20:56:22,15.08858106,0.000153,53.2158,191.1561,83.9206,276.1961,0.0013174,0.00020751,0.0,0 STARLINK-3788,1 52271U 22041L   24139.87248600  .00020751  00000-0  13174-2 0  9993,2 52271  53.2158 191.1561 0001530  83.9206 276.1961 15.08858106115971,6917.825,95.436,540.748,538.632,0.0
52271.0,STARLINK-3788,PAYLOAD,2024-05-19 09:39:29,15.08801598,0.0001559,53.2162,188.7767,102.514,257.6027,0.00057999,8.945e-05,0.0,0 STARLINK-3788,1 52271U 22041L   24140.40242194  .00008945  00000-0  57999-3 0  9991,2 52271  53.2162 188.7767 0001559 102.5140 257.6027 15.08801598114836,6917.998,95.44,540.941,538.784,0.0
52271.0,STARLINK-3788,PAYLOAD,2024-05-20 03:08:44,15.08839351,0.0001644,53.217,185.5051,106.5614,253.5559,0.001559,0.0002461,0.0,0 STARLINK-3788,1 52271U 22041L   24141.13107039  .00024610  00000-0  15590-2 0  9997,2 52271  53.2170 185.5051 0001644 106.5614 253.5559 15.08839351116162,6917.882,95.438,540.885,538.61,0.0
52271.0,STARLINK-3788,PAYLOAD,2024-05-20 09:30:16,15.08853736,0.0001535,53.2164,184.3172,98.8839,261.2327,0.0015282,0.00024126,0.0,0 STARLINK-3788,1 52271U 22041L   24141.39602865  .00024126  00000-0  15282-2 0  9992,2 52271  53.2164 184.3172 0001535  98.8839 261.2327 15.08853736114987,6917.838,95.437,540.765,538.642,0.0
52271.0,STARLINK-3788,PAYLOAD,2024-05-21 02:59:30,15.08866308,0.0001874,53.2179,181.0446,94.0658,266.0548,0.0012737,0.00020056,0.0,0 STARLINK-3788,1 52271U 22041L   24142.12466389  .00020056  00000-0  12737-2 0  9993,2 52271  53.2179 181.0446 0001874  94.0658 266.0548 15.08866308116310,6917.8,95.436,540.961,538.369,0.0
52271.0,STARLINK-3788,PAYLOAD,2024-05-21 07:45:40,15.08855461,0.0001629,53.2164,180.1524,107.741,252.376,0.0004315,6.589e-05,0.0,0 STARLINK-3788,1 52271U 22041L   24142.32338181  .00006589  00000-0  43150-3 0  9992,2 52271  53.2164 180.1524 0001629 107.7410 252.3760 15.08855461116342,6917.833,95.437,540.825,538.571,0.0
52271.0,STARLINK-3788,PAYLOAD,2024-05-22 02:50:17,15.08851551,0.0001479,53.2168,176.5861,51.54,308.5725,0.00044586,6.817e-05,0.0,0 STARLINK-3788,1 52271U 22041L   24143.11826118  .00006817  00000-0  44586-3 0  9990,2 52271  53.2168 176.5861 0001479  51.5400 308.5725 15.08851551116461,6917.845,95.437,540.733,538.687,0.0
52271.0,STARLINK-3788,PAYLOAD,2024-05-22 09:11:50,15.08845141,0.0001436,53.2159,175.3937,96.7749,263.3406,-6.9886e-06,-3.99e-06,0.0,0 STARLINK-3788,1 52271U 22041L   24143.38321968 -.00000399  00000-0 -69886-5 0  9995,2 52271  53.2159 175.3937 0001436  96.7749 263.3406 15.08845141116509,6917.865,95.437,540.723,538.736,0.0
52271.0,STARLINK-3788,PAYLOAD,2024-05-23 09:02:37,15.08835928,0.0001353,53.2171,170.9335,89.6383,270.4764,2.2716e-05,7.4e-07,0.0,0 STARLINK-3788,1 52271U 22041L   24144.37682722  .00000074  00000-0  22716-4 0  9991,2 52271  53.2171 170.9335 0001353  89.6383 270.4764 15.08835928116653,6917.893,95.438,540.694,538.822,0.0
52271.0,STARLINK-3788,PAYLOAD,2024-05-24 10:28:47,15.08843784,0.0001362,53.2169,166.1768,90.1375,269.9773,0.00011515,1.545e-05,0.0,0 STARLINK-3788,1 52271U 22041L   24145.43666010  .00001545  00000-0  11515-3 0  9999,2 52271  53.2169 166.1768 0001362  90.1375 269.9773 15.08843784116815,6917.869,95.437,540.676,538.792,0.0
52271.0,STARLINK-3788,PAYLOAD,2024-05-24 18:25:42,15.08847564,0.0001099,53.2171,164.6897,92.6933,267.4184,0.00015988,2.258e-05,0.0,0 STARLINK-3788,1 52271U 22041L   24145.76785441  .00002258  00000-0  15988-3 0  9995,2 52271  53.2171 164.6897 0001099  92.6933 267.4184 15.08847564115647,6917.857,95.437,540.483,538.962,0.0
